0 DELTA 1 DEB
1 27728U 76077FT  13285.04230392  .00000534  00000-0  72341-2 0  6937
2 27728 102.4831 336.7713 0399007 192.0585 287.1387 11.80963610884804
0 DELTA 1 DEB
1 27728U 76077FT  13289.08811855  .00000592  00000-0  79615-2 0  6940
2 27728 102.4832 340.4814 0398947 185.7605 207.5483 11.80971047885282
0 DELTA 1 DEB
1 27728U 76077FT  13290.03980421  .00000975  00000-0  12778-1 0  6955
2 27728 102.4832 341.3541 0398939 184.2764 293.6175 11.80989287885391
0 DELTA 1 DEB
1 27728U 76077FT  13290.36688840  .00000480  00000-0  65412-2 0  6967
2 27728 102.4830 341.6543 0398880 183.7802 244.1295 11.80972399885431
0 DELTA 1 DEB
1 27728U 76077FT  13290.60500927  .00000754  00000-0  10000-3 0  6972
2 27728 102.4825 341.8694 0399184 183.1006 176.8066 11.80971677885460
0 DELTA 1 DEB
1 27728U 76077FT  13293.00561582  .00000350  00000-0  49132-2 0  6972
2 27728 102.4830 344.0745 0398674 179.6603 302.5176 11.80975958885741
0 DELTA 1 DEB
1 27728U 76077FT  13295.36448273  .00000230  00000-0  33926-2 0  6986
2 27728 102.4835 346.2379 0398366 175.9972 251.1020 11.80978658886028
